[{"OBJECT_NAME":"ONEWEB-0528","OBJECT_ID":"2022-166B","EPOCH":"2026-04-26T09:36:24.076224","MEAN_MOTION":13.21824192,"ECCENTRICITY":0.0001928,"INCLINATION":87.9215,"RA_OF_ASC_NODE":254.3099,"ARG_OF_PERICENTER":92.2701,"MEAN_ANOMALY":267.8653,"EPHEMERIS_TYPE":0,"CLASSIFICATION_TYPE":"U","NORAD_CAT_ID":54643,"ELEMENT_SET_NO":999,"REV_AT_EPOCH":16470,"BSTAR":0.00010474,"MEAN_MOTION_DOT":5.6e-07,"MEAN_MOTION_DDOT":0.0},{"OBJECT_NAME":"ONEWEB-0539","OBJECT_ID":"2022-166C","EPOCH":"2026-04-26T08:43:08.281056","MEAN_MOTION":13.21826329,"ECCENTRICITY":0.0002047,"INCLINATION":87.9225,"RA_OF_ASC_NODE":254.2854,"ARG_OF_PERICENTER":107.0554,"MEAN_ANOMALY":253.0805,"EPHEMERIS_TYPE":0,"CLASSIFICATION_TYPE":"U","NORAD_CAT_ID":54644,"ELEMENT_SET_NO":999,"REV_AT_EPOCH":16469,"BSTAR":0.00013716,"MEAN_MOTION_DOT":7e-07,"MEAN_MOTION_DDOT":0.0},{"OBJECT_NAME":"ONEWEB-0540","OBJECT_ID":"2022-166D","EPOCH":"2026-04-26T07:04:01.185024","MEAN_MOTION":13.21826852,"ECCENTRICITY":0.0001946,"INCLINATION":87.9217,"RA_OF_ASC_NODE":254.3336,"ARG_OF_PERICENTER":102.5887,"MEAN_ANOMALY":257.5464,"EPHEMERIS_TYPE":0,"CLASSIFICATION_TYPE":"U","NORAD_CAT_ID":54645,"ELEMENT_SET_NO":999,"REV_AT_EPOCH":16467,"BSTAR":-4.97e-05,"MEAN_MOTION_DOT":-8e-08,"MEAN_MOTION_DDOT":0.0},{"OBJECT_NAME":"ONEWEB-0542","OBJECT_ID":"2022-166E","EPOCH":"2026-04-26T10:46:40.264896","MEAN_MOTION":13.21827157,"ECCENTRICITY":0.000212,"INCLINATION":87.9225,"RA_OF_ASC_NODE":254.2669,"ARG_OF_PERICENTER":105.4673,"MEAN_ANOMALY":254.6695,"EPHEMERIS_TYPE":0,"CLASSIFICATION_TYPE":"U","NORAD_CAT_ID":54646,"ELEMENT_SET_NO":999,"REV_AT_EPOCH":16470,"BSTAR":5.9325000000000005e-05,"MEAN_MOTION_DOT":3.8e-07,"MEAN_MOTION_DDOT":0.0},{"OBJECT_NAME":"ONEWEB-0545","OBJECT_ID":"2022-166F","EPOCH":"2026-04-26T09:55:47.282016","MEAN_MOTION":13.2186058,"ECCENTRICITY":0.0002046,"INCLINATION":87.9217,"RA_OF_ASC_NODE":254.2898,"ARG_OF_PERICENTER":108.7422,"MEAN_ANOMALY":251.3934,"EPHEMERIS_TYPE":0,"CLASSIFICATION_TYPE":"U","NORAD_CAT_ID":54647,"ELEMENT_SET_NO":999,"REV_AT_EPOCH":16466,"BSTAR":-0.016800000000000002,"MEAN_MOTION_DOT":-6.924e-05,"MEAN_MOTION_DDOT":0.0},{"OBJECT_NAME":"ONEWEB-0580","OBJECT_ID":"2022-166G","EPOCH":"2026-04-26T07:30:26.766720","MEAN_MOTION":13.21824356,"ECCENTRICITY":0.0002028,"INCLINATION":87.9215,"RA_OF_ASC_NODE":254.31,"ARG_OF_PERICENTER":111.4619,"MEAN_ANOMALY":248.6731,"EPHEMERIS_TYPE":0,"CLASSIFICATION_TYPE":"U","NORAD_CAT_ID":54648,"ELEMENT_SET_NO":999,"REV_AT_EPOCH":16469,"BSTAR":6.074100000000001e-05,"MEAN_MOTION_DOT":3.8e-07,"MEAN_MOTION_DDOT":0.0},{"OBJECT_NAME":"ONEWEB-0582","OBJECT_ID":"2022-166H","EPOCH":"2026-04-26T10:20:00.521376","MEAN_MOTION":13.21826716,"ECCENTRICITY":0.000217,"INCLINATION":87.9217,"RA_OF_ASC_NODE":254.279,"ARG_OF_PERICENTER":110.5049,"MEAN_ANOMALY":249.6318,"EPHEMERIS_TYPE":0,"CLASSIFICATION_TYPE":"U","NORAD_CAT_ID":54649,"ELEMENT_SET_NO":999,"REV_AT_EPOCH":16468,"BSTAR":0.00018574,"MEAN_MOTION_DOT":9e-07,"MEAN_MOTION_DDOT":0.0},{"OBJECT_NAME":"ONEWEB-0583","OBJECT_ID":"2022-166J","EPOCH":"2026-04-26T08:47:58.634304","MEAN_MOTION":13.21827657,"ECCENTRICITY":0.0001961,"INCLINATION":87.9216,"RA_OF_ASC_NODE":254.3151,"ARG_OF_PERICENTER":102.8077,"MEAN_ANOMALY":257.3276,"EPHEMERIS_TYPE":0,"CLASSIFICATION_TYPE":"U","NORAD_CAT_ID":54650,"ELEMENT_SET_NO":999,"REV_AT_EPOCH":16468,"BSTAR":5.1003e-05,"MEAN_MOTION_DOT":3.4e-07,"MEAN_MOTION_DDOT":0.0},{"OBJECT_NAME":"ONEWEB-0584","OBJECT_ID":"2022-166K","EPOCH":"2026-04-26T07:28:00.545088","MEAN_MOTION":13.21834966,"ECCENTRICITY":0.0002032,"INCLINATION":87.9215,"RA_OF_ASC_NODE":254.313,"ARG_OF_PERICENTER":105.0072,"MEAN_ANOMALY":255.1287,"EPHEMERIS_TYPE":0,"CLASSIFICATION_TYPE":"U","NORAD_CAT_ID":54651,"ELEMENT_SET_NO":999,"REV_AT_EPOCH":16466,"BSTAR":-0.0024239,"MEAN_MOTION_DOT":-9.88e-06,"MEAN_MOTION_DDOT":0.0},{"OBJECT_NAME":"ONEWEB-0585","OBJECT_ID":"2022-166L","EPOCH":"2026-04-26T09:50:55.928256","MEAN_MOTION":13.21826054,"ECCENTRICITY":0.0001825,"INCLINATION":87.9217,"RA_OF_ASC_NODE":254.2777,"ARG_OF_PERICENTER":95.2983,"MEAN_ANOMALY":264.836,"EPHEMERIS_TYPE":0,"CLASSIFICATION_TYPE":"U","NORAD_CAT_ID":54652,"ELEMENT_SET_NO":999,"REV_AT_EPOCH":16468,"BSTAR":0.00021361,"MEAN_MOTION_DOT":1.01e-06,"MEAN_MOTION_DDOT":0.0},{"OBJECT_NAME":"ONEWEB-0586","OBJECT_ID":"2022-166M","EPOCH":"2026-04-26T10:10:19.826112","MEAN_MOTION":13.21824228,"ECCENTRICITY":0.0002034,"INCLINATION":87.9216,"RA_OF_ASC_NODE":254.3013,"ARG_OF_PERICENTER":103.1416,"MEAN_ANOMALY":256.9945,"EPHEMERIS_TYPE":0,"CLASSIFICATION_TYPE":"U","NORAD_CAT_ID":54653,"ELEMENT_SET_NO":999,"REV_AT_EPOCH":16468,"BSTAR":3.6953000000000003e-05,"MEAN_MOTION_DOT":2.8e-07,"MEAN_MOTION_DDOT":0.0},{"OBJECT_NAME":"ONEWEB-0587","OBJECT_ID":"2022-166N","EPOCH":"2026-04-26T10:24:51.887232","MEAN_MOTION":13.21827057,"ECCENTRICITY":0.0001679,"INCLINATION":87.9228,"RA_OF_ASC_NODE":254.2676,"ARG_OF_PERICENTER":90.4707,"MEAN_ANOMALY":269.6619,"EPHEMERIS_TYPE":0,"CLASSIFICATION_TYPE":"U","NORAD_CAT_ID":54654,"ELEMENT_SET_NO":999,"REV_AT_EPOCH":16484,"BSTAR":7.5867e-05,"MEAN_MOTION_DOT":4.4e-07,"MEAN_MOTION_DDOT":0.0},{"OBJECT_NAME":"ONEWEB-0589","OBJECT_ID":"2022-166P","EPOCH":"2026-04-26T08:16:28.966944","MEAN_MOTION":13.21823899,"ECCENTRICITY":0.0002366,"INCLINATION":87.9213,"RA_OF_ASC_NODE":254.3045,"ARG_OF_PERICENTER":119.6383,"MEAN_ANOMALY":240.4987,"EPHEMERIS_TYPE":0,"CLASSIFICATION_TYPE":"U","NORAD_CAT_ID":54655,"ELEMENT_SET_NO":999,"REV_AT_EPOCH":16469,"BSTAR":0.00013846,"MEAN_MOTION_DOT":7e-07,"MEAN_MOTION_DDOT":0.0},{"OBJECT_NAME":"ONEWEB-0590","OBJECT_ID":"2022-166Q","EPOCH":"2026-04-26T08:52:37.380576","MEAN_MOTION":13.21826807,"ECCENTRICITY":0.0001517,"INCLINATION":87.9223,"RA_OF_ASC_NODE":254.2845,"ARG_OF_PERICENTER":109.792,"MEAN_ANOMALY":250.3377,"EPHEMERIS_TYPE":0,"CLASSIFICATION_TYPE":"U","NORAD_CAT_ID":54656,"ELEMENT_SET_NO":999,"REV_AT_EPOCH":16468,"BSTAR":0.00068273,"MEAN_MOTION_DOT":2.95e-06,"MEAN_MOTION_DDOT":0.0},{"OBJECT_NAME":"ONEWEB-0591","OBJECT_ID":"2022-166R","EPOCH":"2026-04-26T07:20:46.449024","MEAN_MOTION":13.21827896,"ECCENTRICITY":0.0001795,"INCLINATION":87.9214,"RA_OF_ASC_NODE":254.3161,"ARG_OF_PERICENTER":101.4113,"MEAN_ANOMALY":258.7223,"EPHEMERIS_TYPE":0,"CLASSIFICATION_TYPE":"U","NORAD_CAT_ID":54657,"ELEMENT_SET_NO":999,"REV_AT_EPOCH":16470,"BSTAR":-7.2934e-06,"MEAN_MOTION_DOT":1e-07,"MEAN_MOTION_DDOT":0.0},{"OBJECT_NAME":"ONEWEB-0592","OBJECT_ID":"2022-166S","EPOCH":"2026-04-26T07:25:36.969888","MEAN_MOTION":13.21827644,"ECCENTRICITY":0.0001842,"INCLINATION":87.9224,"RA_OF_ASC_NODE":254.2892,"ARG_OF_PERICENTER":99.7875,"MEAN_ANOMALY":260.3467,"EPHEMERIS_TYPE":0,"CLASSIFICATION_TYPE":"U","NORAD_CAT_ID":54658,"ELEMENT_SET_NO":999,"REV_AT_EPOCH":16458,"BSTAR":5.0731000000000006e-05,"MEAN_MOTION_DOT":3.4e-07,"MEAN_MOTION_DDOT":0.0},{"OBJECT_NAME":"ONEWEB-0593","OBJECT_ID":"2022-166T","EPOCH":"2026-04-26T09:46:06.095136","MEAN_MOTION":13.21824788,"ECCENTRICITY":0.0002035,"INCLINATION":87.9217,"RA_OF_ASC_NODE":254.2848,"ARG_OF_PERICENTER":101.1722,"MEAN_ANOMALY":258.9641,"EPHEMERIS_TYPE":0,"CLASSIFICATION_TYPE":"U","NORAD_CAT_ID":54659,"ELEMENT_SET_NO":999,"REV_AT_EPOCH":16470,"BSTAR":0.0001536,"MEAN_MOTION_DOT":7.6e-07,"MEAN_MOTION_DDOT":0.0},{"OBJECT_NAME":"ONEWEB-0594","OBJECT_ID":"2022-166U","EPOCH":"2026-04-26T08:26:10.180608","MEAN_MOTION":13.21823815,"ECCENTRICITY":0.0001834,"INCLINATION":87.9216,"RA_OF_ASC_NODE":254.3133,"ARG_OF_PERICENTER":96.865,"MEAN_ANOMALY":263.2692,"EPHEMERIS_TYPE":0,"CLASSIFICATION_TYPE":"U","NORAD_CAT_ID":54660,"ELEMENT_SET_NO":999,"REV_AT_EPOCH":16471,"BSTAR":-5.2603e-06,"MEAN_MOTION_DOT":1.1e-07,"MEAN_MOTION_DDOT":0.0},{"OBJECT_NAME":"ONEWEB-0595","OBJECT_ID":"2022-166V","EPOCH":"2026-04-26T09:41:14.351712","MEAN_MOTION":13.21831927,"ECCENTRICITY":0.0001836,"INCLINATION":87.9224,"RA_OF_ASC_NODE":254.2792,"ARG_OF_PERICENTER":94.7092,"MEAN_ANOMALY":265.4252,"EPHEMERIS_TYPE":0,"CLASSIFICATION_TYPE":"U","NORAD_CAT_ID":54661,"ELEMENT_SET_NO":999,"REV_AT_EPOCH":16469,"BSTAR":-0.0019484,"MEAN_MOTION_DOT":-7.92e-06,"MEAN_MOTION_DDOT":0.0},{"OBJECT_NAME":"ONEWEB-0596","OBJECT_ID":"2022-166W","EPOCH":"2026-04-26T07:15:55.888416","MEAN_MOTION":13.21827551,"ECCENTRICITY":0.0001754,"INCLINATION":87.9217,"RA_OF_ASC_NODE":254.3143,"ARG_OF_PERICENTER":98.0068,"MEAN_ANOMALY":262.1265,"EPHEMERIS_TYPE":0,"CLASSIFICATION_TYPE":"U","NORAD_CAT_ID":54662,"ELEMENT_SET_NO":999,"REV_AT_EPOCH":16468,"BSTAR":-1.7383000000000003e-05,"MEAN_MOTION_DOT":6e-08,"MEAN_MOTION_DDOT":0.0},{"OBJECT_NAME":"ONEWEB-0597","OBJECT_ID":"2022-166X","EPOCH":"2026-04-26T10:27:17.843616","MEAN_MOTION":13.21826165,"ECCENTRICITY":0.0001979,"INCLINATION":87.9214,"RA_OF_ASC_NODE":254.2918,"ARG_OF_PERICENTER":102.7814,"MEAN_ANOMALY":257.3541,"EPHEMERIS_TYPE":0,"CLASSIFICATION_TYPE":"U","NORAD_CAT_ID":54663,"ELEMENT_SET_NO":999,"REV_AT_EPOCH":16470,"BSTAR":-0.00015087,"MEAN_MOTION_DOT":-4.9e-07,"MEAN_MOTION_DDOT":0.0},{"OBJECT_NAME":"ONEWEB-0600","OBJECT_ID":"2022-166Y","EPOCH":"2026-04-26T10:00:38.462976","MEAN_MOTION":13.21823833,"ECCENTRICITY":0.0002082,"INCLINATION":87.9216,"RA_OF_ASC_NODE":254.2867,"ARG_OF_PERICENTER":97.3427,"MEAN_ANOMALY":262.7944,"EPHEMERIS_TYPE":0,"CLASSIFICATION_TYPE":"U","NORAD_CAT_ID":54664,"ELEMENT_SET_NO":999,"REV_AT_EPOCH":16467,"BSTAR":8.417400000000001e-05,"MEAN_MOTION_DOT":4.8e-07,"MEAN_MOTION_DDOT":0.0},{"OBJECT_NAME":"ONEWEB-0601","OBJECT_ID":"2022-166Z","EPOCH":"2026-04-26T09:48:31.946112","MEAN_MOTION":13.21824184,"ECCENTRICITY":0.0002018,"INCLINATION":87.9214,"RA_OF_ASC_NODE":254.3048,"ARG_OF_PERICENTER":106.6641,"MEAN_ANOMALY":253.4714,"EPHEMERIS_TYPE":0,"CLASSIFICATION_TYPE":"U","NORAD_CAT_ID":54665,"ELEMENT_SET_NO":999,"REV_AT_EPOCH":16486,"BSTAR":0.00020409,"MEAN_MOTION_DOT":9.7e-07,"MEAN_MOTION_DDOT":0.0}]